     2.10           G: GLONASS NAV DATA                     RINEX VERSION / TYPE
teqc  2015Jun23                         20220104 01:25:47UTCPGM / RUN BY / DATE
Linux 2.4.21-27.ELsmp|Opteron|gcc -static|Linux x86_64|=+   COMMENT
  2021    12    11   -0.000000000000D+00                    CORR TO SYSTEM TIME
                                                            END OF HEADER
17 21 12 12 23 45  0.0 4.830462858081D-04 2.728484105319D-12 8.460000000000D+04
   -1.305713378906D+04 8.140268325806D-01-1.862645149231D-09 0.000000000000D+00
    1.749637304688D+04-1.622598648071D+00 1.862645149231D-09 4.000000000000D+00
   -1.314248437500D+04-2.969162940979D+00 0.000000000000D+00 0.000000000000D+00
18 21 12 12 23 45  0.0 1.002773642540D-04 9.094947017729D-13 8.460000000000D+04
   -7.768818359375D+03 6.222629547119D-02-1.862645149231D-09 0.000000000000D+00
    2.409731982422D+04 5.100269317627D-01 1.862645149231D-09-3.000000000000D+00
    3.327921386719D+03-3.566022872925D+00-0.000000000000D+00 0.000000000000D+00
19 21 12 12 23 45  0.0-1.704627647996D-04-9.094947017729D-13 8.460000000000D+04
    5.488041992188D+02-7.632350921631D-01-9.313225746155D-10 0.000000000000D+00
    1.866116796875D+04 2.264712333679D+00 9.313225746155D-10 3.000000000000D+00
    1.738431884766D+04-2.408386230469D+00-9.313225746155D-10 0.000000000000D+00
